[{"OBJECT_NAME":"STARLINK-5652","OBJECT_ID":"2023-013D","EPOCH":"2026-03-09T00:21:02.163168","MEAN_MOTION":15.02535196,"ECCENTRICITY":0.00010965,"INCLINATION":43.0043,"RA_OF_ASC_NODE":304.268,"ARG_OF_PERICENTER":272.4279,"MEAN_ANOMALY":87.6438,"EPHEMERIS_TYPE":0,"CLASSIFICATION_TYPE":"U","NORAD_CAT_ID":55334,"ELEMENT_SET_NO":999,"REV_AT_EPOCH":17160,"BSTAR":1.0299495e-5,"MEAN_MOTION_DOT":-6.4e-7,"MEAN_MOTION_DDOT":0},{"OBJECT_NAME":"CZ-6A DEB","OBJECT_ID":"2022-151BB","EPOCH":"2026-03-09T17:16:48.853632","MEAN_MOTION":14.94828895,"ECCENTRICITY":0.00449007,"INCLINATION":98.6423,"RA_OF_ASC_NODE":141.5544,"ARG_OF_PERICENTER":201.6501,"MEAN_ANOMALY":158.2819,"EPHEMERIS_TYPE":0,"CLASSIFICATION_TYPE":"U","NORAD_CAT_ID":54308,"ELEMENT_SET_NO":999,"REV_AT_EPOCH":17599,"BSTAR":0.0053055882,"MEAN_MOTION_DOT":0.00059316,"MEAN_MOTION_DDOT":0}]
